     2.11           N: GPS NAV DATA                         RINEX VERSION / TYPE
teqc  2016Apr1                          20161102 00:25:01UTCPGM / RUN BY / DATE
    17                                                      LEAP SECONDS
Linux2.6.32-279.el6.x86_64|x86_64|gcc|Win64-MinGW64|=       COMMENT
     2.10           N: GPS NAV DATA                         COMMENT
teqc  2016Apr1                          20161101 01:00:49UTCCOMMENT
    1.2107D-08 -7.4506D-09 -1.1921D-07  5.9605D-08          ION ALPHA
    9.6256D+04 -3.2768D+04 -1.9661D+05  1.9661D+05          ION BETA
    0.000000000000D+00-2.664535259100D-15   405504     1921 DELTA-UTC: A0,A1,T,W
                                                            END OF HEADER
14 16 11  1 14  0  0.0-4.302524030209D-05-1.932676241267D-12 0.000000000000D+00
    3.200000000000D+01 7.481250000000D+01 4.063026384215D-09-2.215216087042D+00
    3.842636942863D-06 8.703937754035D-03 1.111254096031D-05 5.153603969574D+03
    2.232000000000D+05 1.285225152969D-07-2.876110288578D+00-9.685754776001D-08
    9.635690409297D-01 1.699062500000D+02-1.943264456902D+00-7.554243235981D-09
   -1.410773050075D-10 1.000000000000D+00 1.921000000000D+03 0.000000000000D+00
    2.000000000000D+00 0.000000000000D+00-9.313225746155D-09 3.200000000000D+01
    2.160180000000D+05 4.000000000000D+00
11 16 11  1 14  0  0.0-6.691892631352D-04-2.387423592154D-12 0.000000000000D+00
    5.000000000000D+01 2.393750000000D+01 6.020607925343D-09 1.798269183530D+00
    1.041218638420D-06 1.677972113248D-02 8.981674909592D-06 5.153680908203D+03
    2.232000000000D+05 2.160668373108D-07 8.539707323602D-01-3.166496753693D-07
    8.983051450093D-01 1.693750000000D+02 1.594247257632D+00-8.503211335740D-09
    5.864529995500D-10 1.000000000000D+00 1.921000000000D+03 0.000000000000D+00
    4.000000000000D+00 0.000000000000D+00-1.210719347000D-08 5.000000000000D+01
    2.160180000000D+05 4.000000000000D+00
32 16 11  1 14  0  0.0-1.792237162590D-04-1.648459146963D-11 0.000000000000D+00
    7.400000000000D+01 5.112500000000D+01 4.213389790311D-09-1.223706718125D+00
    2.589076757431D-06 6.069272058085D-04 1.144036650658D-05 5.153667789459D+03
    2.232000000000D+05 9.872019290924D-08-2.958934037857D+00-3.725290298462D-09
    9.593843505977D-01 1.637187500000D+02-2.461700380525D+00-7.788538709614D-09
   -2.939408152434D-10 1.000000000000D+00 1.921000000000D+03 0.000000000000D+00
    2.800000000000D+00 0.000000000000D+00 4.656612873077D-10 7.400000000000D+01
    2.160180000000D+05 4.000000000000D+00
17 16 11  1 14  0  0.0-2.000336535275D-04 6.821210263297D-13 0.000000000000D+00
    3.500000000000D+01-6.175000000000D+01 3.870518365483D-09-1.817231859755D+00
   -3.071501851082D-06 1.138318295125D-02 1.146830618382D-05 5.153770538330D+03
    2.232000000000D+05 2.216547727585D-07 2.354775158294D-01 6.519258022308D-08
    9.783273359462D-01 1.632187500000D+02-1.916612295578D+00-7.456739174546D-09
    2.800116636097D-10 1.000000000000D+00 1.921000000000D+03 0.000000000000D+00
    2.000000000000D+00 0.000000000000D+00-1.071020960808D-08 3.500000000000D+01
    2.160180000000D+05 4.000000000000D+00
10 16 11  1 14  0  0.0-1.118551008403D-04-2.273736754432D-12 0.000000000000D+00
    6.000000000000D+01-3.506250000000D+01 4.870560021232D-09 3.100868060058D-01
   -1.953914761543D-06 1.842698547989D-03 6.129965186119D-06 5.153675159454D+03
    2.232000000000D+05-5.029141902924D-08 2.280561812748D+00-1.676380634308D-08
    9.595604610648D-01 2.581250000000D+02-2.927689557244D+00-8.223913987599D-09
   -5.871673150184D-10 1.000000000000D+00 1.921000000000D+03 0.000000000000D+00
    2.000000000000D+00 0.000000000000D+00 2.328306436539D-09 6.000000000000D+01
    2.160180000000D+05 4.000000000000D+00
28 16 11  1 14  0  0.0 5.636820569634D-04 2.842170943040D-12 0.000000000000D+00
    8.500000000000D+01-8.815625000000D+01 4.128743407307D-09-9.140233937032D-01
   -4.317611455917D-06 2.004630723968D-02 4.837289452553D-06 5.153630960464D+03
    2.232000000000D+05-2.756714820862D-07-7.789255891488D-01 2.533197402954D-07
    9.892578853274D-01 3.067812500000D+02-1.605863829280D+00-8.324632468642D-09
   -1.660783464012D-10 1.000000000000D+00 1.921000000000D+03 0.000000000000D+00
    4.000000000000D+00 0.000000000000D+00-1.117587089539D-08 8.500000000000D+01
    2.160180000000D+05 4.000000000000D+00
 1 16 11  1 14  0  0.0 3.908434882760D-05 1.250555214938D-12 0.000000000000D+00
    6.600000000000D+01 3.503125000000D+01 4.779841956746D-09 2.362595976863D+00
    1.806765794754D-06 5.964599899016D-03 6.822869181633D-06 5.153693452835D+03
    2.232000000000D+05-1.173466444016D-07 1.242155730166D+00-4.842877388000D-08
    9.652277471871D-01 2.497187500000D+02 5.651778254450D-01-8.017119659500D-09
    5.014494588113D-10 1.000000000000D+00 1.921000000000D+03 0.000000000000D+00
    2.000000000000D+00 0.000000000000D+00 5.122274160385D-09 6.600000000000D+01
    2.160180000000D+05 4.000000000000D+00
 3 16 11  1 14  0  0.0-9.582657366991D-05-2.728484105319D-12 0.000000000000D+00
    7.300000000000D+01-2.837500000000D+01 4.880203280055D-09 1.033044767238D+00
   -1.482665538788D-06 3.230024594814D-04 6.498768925667D-06 5.153585382462D+03
    2.232000000000D+05 2.793967723846D-08 2.284431909861D+00 5.401670932770D-08
    9.593564278803D-01 2.516250000000D+02 7.894944320349D-01-8.170340327470D-09
   -5.053781938875D-10 1.000000000000D+00 1.921000000000D+03 0.000000000000D+00
    2.000000000000D+00 0.000000000000D+00 1.862645149231D-09 7.300000000000D+01
    2.160180000000D+05 4.000000000000D+00
31 16 11  1 14  0  0.0 2.392125315964D-04-2.160049916711D-12 0.000000000000D+00
    6.200000000000D+01 8.862500000000D+01 4.324108687912D-09 1.568865501683D+00
    4.764646291733D-06 8.436873555183D-03 3.188848495483D-06 5.153585874557D+03
    2.232000000000D+05 3.539025783539D-08-1.872604995800D+00 1.601874828339D-07
    9.692309654573D-01 3.193125000000D+02-3.645171030519D-01-8.142482024202D-09
    1.928651764659D-10 1.000000000000D+00 1.921000000000D+03 0.000000000000D+00
    2.000000000000D+00 0.000000000000D+00-1.350417733192D-08 6.200000000000D+01
    2.160180000000D+05 4.000000000000D+00
19 16 11  1 13 59 44.0-5.207746289670D-04 6.821210263297D-13 0.000000000000D+00
    2.000000000000D+00-6.162500000000D+01 3.967665269184D-09 1.332016292419D+00
   -3.073364496231D-06 1.035152585246D-02 1.202523708344D-05 5.153641193390D+03
    2.231840000000D+05-1.862645149231D-07 2.837975858800D-01 8.940696716309D-08
    9.754689564032D-01 1.587187500000D+02 8.828191330976D-01-7.751751462992D-09
    1.982225424788D-10 1.000000000000D+00 1.921000000000D+03 0.000000000000D+00
    2.000000000000D+00 0.000000000000D+00-1.490116119385D-08 2.000000000000D+00
    2.163780000000D+05 4.000000000000D+00
12 16 11  1 14  0  0.0 3.894371911883D-04 1.136868377216D-13 0.000000000000D+00
    3.700000000000D+01-8.600000000000D+01 3.988023260033D-09 1.120028508403D+00
   -4.675239324570D-06 6.064532673918D-03 3.930181264877D-06 5.153635263443D+03
    2.232000000000D+05-3.352761268616D-08-8.025266212322D-01 3.725290298462D-08
    9.900005078949D-01 3.185937500000D+02 7.837328096402D-01-8.044620805033D-09
   -2.721541934574D-10 1.000000000000D+00 1.921000000000D+03 0.000000000000D+00
    2.000000000000D+00 0.000000000000D+00-1.257285475731D-08 3.700000000000D+01
    2.193060000000D+05 4.000000000000D+00
 9 16 11  1 14  0  0.0 2.362444065511D-04 7.275957614183D-12 0.000000000000D+00
    5.100000000000D+01 5.456250000000D+01 4.368396246952D-09-1.624804023381D+00
    2.680346369743D-06 6.463790778071D-04 1.171603798866D-05 5.153762239456D+03
    2.232000000000D+05-1.117587089539D-08-2.961104105666D+00 1.862645149231D-09
    9.548298638336D-01 1.490625000000D+02 1.820589340134D+00-7.867113411137D-09
   -2.985838657879D-10 1.000000000000D+00 1.921000000000D+03 0.000000000000D+00
    2.000000000000D+00 0.000000000000D+00 1.396983861923D-09 5.100000000000D+01
    2.198580000000D+05 4.000000000000D+00
 6 16 11  1 14  0  0.0 2.672993578017D-04 5.002220859751D-12 0.000000000000D+00
    6.600000000000D+01 2.734375000000D+01 4.768770066986D-09 3.071753316067D+00
    1.560896635056D-06 2.375313779339D-04 6.854534149170D-06 5.153788490295D+03
    2.232000000000D+05 6.519258022308D-08 1.233758497005D+00-6.891787052155D-08
    9.650379935460D-01 2.480000000000D+02-1.801467286298D+00-8.081408051655D-09
    4.368039089218D-10 1.000000000000D+00 1.921000000000D+03 0.000000000000D+00
    2.000000000000D+00 0.000000000000D+00 4.190951585770D-09 6.600000000000D+01
    2.211780000000D+05 4.000000000000D+00
25 16 11  1 14  0  0.0-2.741664648056D-04-6.821210263297D-12 0.000000000000D+00
    1.010000000000D+02-8.115625000000D+01 4.258034507086D-09 5.839208035596D-01
   -4.403293132782D-06 5.655766930431D-03 3.814697265625D-06 5.153680803299D+03
    2.232000000000D+05-1.862645149231D-08-8.553200958123D-01 5.215406417847D-08
    9.780574217089D-01 3.168750000000D+02 7.690156211588D-01-8.211770624636D-09
   -2.464388365953D-10 1.000000000000D+00 1.921000000000D+03 0.000000000000D+00
    2.000000000000D+00 0.000000000000D+00 5.587935447693D-09 1.010000000000D+02
    2.211960000000D+05 4.000000000000D+00
22 16 11  1 16  0  0.0 2.024066634476D-04-1.057287590811D-11 0.000000000000D+00
    2.800000000000D+01-3.096875000000D+01 5.744167839076D-09-1.252653899480D+00
   -1.505017280579D-06 7.332933251746D-03 5.817040801048D-06 5.153680473328D+03
    2.304000000000D+05-2.421438694000D-08 2.246157113094D+00 2.104789018631D-07
    9.230028214466D-01 2.449375000000D+02-1.851698527156D+00-8.629645173646D-09
   -4.535903224290D-10 1.000000000000D+00 1.921000000000D+03 0.000000000000D+00
    2.000000000000D+00 0.000000000000D+00-1.769512891769D-08 2.800000000000D+01
    2.232180000000D+05 4.000000000000D+00
